MAX VALIER SAT          
1 42778U 17036P   17345.76223038  .00001190  00000-0  56855-4 0  9990
2 42778  97.4306  43.3525 0012944  13.5684 346.5897 15.20897421 26018
